ONEWEB-0229             
1 48779U 21045N   25059.37671183 -.00000032  00000+0 -11788-3 0  9998
2 48779  87.9136 353.5641 0001965  83.5379 276.5975 13.15549514182116
ONEWEB-0228             
1 48780U 21045P   25059.79032629  .00016011  00000+0  42481-1 0  9996
2 48780  87.9128 353.4601 0001974  82.0459 278.0895 13.15455619182083
ONEWEB-0232             
1 48781U 21045Q   25059.53674016 -.00000046  00000+0 -15525-3 0  9995
2 48781  87.9125 353.5115 0001870  80.2874 279.8467 13.15551212182370
ONEWEB-0231             
1 48782U 21045R   25059.74274024  .00000008  00000+0 -13360-4 0  9997
2 48782  87.9119 353.5321 0002086  82.3386 277.7981 13.15549152182091
ONEWEB-0234             
1 48783U 21045S   25059.53437124 -.00000053  00000+0 -17498-3 0  9993
2 48783  87.9136 353.5203 0001781  39.9393 320.1868 13.15549472182202
ONEWEB-0238             
1 48784U 21045T   25059.56448056  .00000186  00000+0  46064-3 0  9999
2 48784  87.9131 353.5308 0001785  75.4304 284.7024 13.15548454182102
ONEWEB-0240             
1 48785U 21045U   25059.57397419  .00000166  00000+0  40804-3 0  9991
2 48785  87.9131 353.4950 0002220  74.9525 285.1851 13.15552715182130
ONEWEB-0246             
1 48786U 21045V   25059.56844058  .00000182  00000+0  44909-3 0  9995
2 48786  87.9132 353.5046 0001941  83.7983 276.3369 13.15548694182007
